TDRS 3                  
1 19548U 88091B   26147.92669137 -.00000302  00000+0  00000+0 0  9990
2 19548  12.6172 341.1403 0039097 358.1868 190.5478  1.00263739125183
FLTSATCOM 8 (USA 46)    
1 20253U 89077A   26147.96129027 -.00000370  00000+0  00000+0 0  9998
2 20253  12.4272 351.2875 0005875  30.7876 335.0331  1.00264510260363
SKYNET 4C               
1 20776U 90079A   26148.22821478  .00000124  00000+0  00000+0 0  9997
2 20776  13.3459 349.9545 0002949  70.9957 300.4119  1.00278246130696
TDRS 5                  
1 21639U 91054B   26148.30307319  .00000081  00000+0  00000+0 0  9994
2 21639  14.0739 353.9303 0006261 286.3006 267.1594  1.00267394127515
TDRS 6                  
1 22314U 93003B   26148.28262869 -.00000298  00000+0  00000+0 0  9999
2 22314  14.1828 357.2087 0006945 180.2495 124.1386  1.00278647122200
UFO 2 (USA 95)          
1 22787U 93056A   26147.72836521  .00000123  00000+0  00000+0 0  9997
2 22787  11.8878   3.6705 0006095 357.9666 174.5951  1.00274017118345
USA 99 (MILSTAR-1 1)    
1 22988U 94009A   26147.54467884 -.00000185  00000+0  00000+0 0  9990
2 22988  17.5976  27.9215 0000738 272.5893 260.9651  0.98722943 32745
UFO 4 (USA 108)         
1 23467U 95003A   26147.82803325 -.00000022  00000+0  00000+0 0  9993
2 23467   9.6993  13.3004 0003067  44.5217 297.9189  1.00269203114745
TDRS 7                  
1 23613U 95035B   26148.03358226 -.00000243  00000+0  00000+0 0  9995
2 23613  13.3858 348.3306 0011069  73.2591 285.3164  1.00269782113049
USA 115 (MILSTAR-1 2)   
1 23712U 95060A   26148.26180993 -.00000155  00000+0  00000+0 0  9994
2 23712  14.0663   3.9013 0001195  96.0538 139.1696  1.00367422 32689
INMARSAT 3-F1           
1 23839U 96020A   26148.20690771 -.00000230  00000+0  00000+0 0  9999
2 23839  10.5609  46.8178 0003473  21.6263 177.5989  0.99983291110052
INMARSAT 3-F2           
1 24307U 96053A   26148.31795397 -.00000095  00000+0  00000+0 0  9997
2 24307   9.8136  54.1386 0006694  13.0143 101.7133  1.00004222108724
INMARSAT 3-F3           
1 24674U 96070A   26147.77541072  .00000055  00000+0  00000+0 0  9996
2 24674  10.2753  49.8477 0003721 359.7188 179.0186  0.99974993107702
AMC-3                   
1 24936U 97050A   26148.20742772 -.00000257  00000+0  00000+0 0  9990
2 24936   8.0983  64.3181 0003217   4.3442 179.7561  1.00272219 52239
USA 134                 
1 25019U 97065A   26148.19945435 -.00000064  00000+0  00000+0 0  9994
2 25019  12.7617  21.8756 0004581 339.5417 203.9802  1.00272633 32757
INMARSAT 3-F5           
1 25153U 98006B   26148.14526571 -.00000288  00000+0  00000+0 0  9998
2 25153   9.6504  53.4593 0005247  11.0523 179.4280  1.00268514103698
ABS-6                   
1 25924U 99053A   26148.18185557 -.00000111  00000+0  00000+0 0  9991
2 25924   0.0094 332.1724 0003802 107.0753  30.9761  1.00271355 97641
UFO 10 (USA 146)        
1 25967U 99063A   26146.08725472 -.00000192  00000+0  00000+0 0  9991
2 25967   9.8423  27.3270 0002455  15.9861 208.7726  1.00267459 97129
ASIASTAR                
1 26107U 00016A   26148.24242818 -.00000330  00000+0  00000+0 0  9990
2 26107   9.0858  58.3686 0005124   7.8801  11.8358  1.00273059 95726
USA 149 (DSP 20)        
1 26356U 00024A   26147.79281131  .00000092  00000+0  00000+0 0  9999
2 26356  13.1560  12.0022 0002093 324.6508  28.8169  1.00267291 32703
TDRS 8                  
1 26388U 00034A   26147.77925245 -.00000196  00000+0  00000+0 0  9990
2 26388  12.6523  31.4960 0005227   4.2635 214.9498  1.00271027 94973
NSS-11                  
1 26554U 00059A   26148.25655491  .00000033  00000+0  00000+0 0  9998
2 26554   2.0769  81.6195 0003184 340.5521  91.9912  1.00272964 41090
USA 153                 
1 26575U 00065A   26147.53534264 -.00000324  00000+0  00000+0 0  9996
2 26575  11.5907  35.5948 0003233  36.6191 140.0499  1.00274762 32721
AMC-6                   
1 26580U 00067A   26148.19494229  .00000097  00000+0  00000+0 0  9999
2 26580   0.1029  83.1286 0003707 349.7157 108.0193  1.00271734 93690
USA 157 (MILSTAR-2 2)   
1 26715U 01009A   26148.26331493  .00000110  00000+0  00000+0 0  9993
2 26715  11.5218  19.8929 0038218 177.1828 353.5707  1.00266957 32747
USA 159 (DSP 21)        
1 26880U 01033A   26147.93388887 -.00000235  00000+0  00000+0 0  9994
2 26880  12.7638  16.5845 0001070  96.6396  95.5849  0.99203202 32753
INTELSAT 902 (IS-902)   
1 26900U 01039A   26148.21174803 -.00000277  00000+0  00000+0 0  9992
2 26900   6.0681  72.0221 0004208 350.0776 209.7854  1.00272172 90495
USA 164 (MILSTAR-2 3)   
1 27168U 02001A   26147.86883391  .00000024  00000+0  00000+0 0  9997
2 27168  11.1563  22.0351 0100054   7.7349 187.3624  1.00270229 32757
INTELSAT 904 (IS-904)   
1 27380U 02007A   26148.20183626 -.00000219  00000+0  00000+0 0  9999
2 27380   6.8723  69.4227 0007389 353.0734 224.4297  1.00272603 51568
DIRECTV 5 (TEMPO 1)     
1 27426U 02023A   26147.91464464 -.00000051  00000+0  00000+0 0  9991
2 27426   4.8281  75.5594 0003491 352.0256  37.0501  1.00272598 87927
INTELSAT 905 (IS-905)   
1 27438U 02027A   26147.63259985  .00000099  00000+0  00000+0 0  9998
2 27438   6.7042  70.0459 0004184   2.7873 262.8781  1.00271345 51153
GALAXY 3C (G-3C)        
1 27445U 02030A   26146.90848220 -.00000148  00000+0  00000+0 0  9991
2 27445   3.6774  78.2606 0001849  24.9171  13.4899  1.00271621 46280
INTELSAT 906 (IS-906)   
1 27513U 02041A   26147.51471575  .00000018  00000+0  00000+0 0  9997
2 27513   5.7514  73.1712 0004592 349.6710  71.6703  1.00271999 86829
NIMIQ 2                 
1 27632U 02062A   26147.60314463 -.00000067  00000+0  00000+0 0  9999
2 27632   9.4011  57.1171 0006093   3.4720 292.5102  1.00271034 43975
USA 167                 
1 27691U 03008A   26147.32841690  .00000004  00000+0  00000+0 0  9991
2 27691  10.9220  43.5982 0004412 315.0631 242.6368  1.00275344  6566
USA 169 (MILSTAR-2 4)   
1 27711U 03012A   26147.96666362 -.00000268  00000+0  00000+0 0  9993
2 27711  12.3203  30.0094 0101749   8.2582 347.3970  1.00272892 32744
ASIASAT 4               
1 27718U 03014A   26147.83239390 -.00000216  00000+0  00000+0 0  9998
2 27718   4.6535  75.9939 0002809 356.7668 259.8104  1.00273010 45093
HELLAS-SAT 2            
1 27811U 03020A   26147.57797977 -.00000080  00000+0  00000+0 0  9999
2 27811   7.3058  68.1288 0003087 341.9867  33.0821  1.00272142 42645
THURAYA-2               
1 27825U 03026A   26148.23046812  .00000127  00000+0  00000+0 0  9990
2 27825   8.8113  32.0617 0003315 358.3707 342.3155  1.00271446 84146
OPTUS C1                
1 27831U 03028B   26147.61082899 -.00000147  00000+0  00000+0 0  9998
2 27831   6.8406  69.6573 0006002 351.2894 199.8524  1.00271718 52858
USA 170                 
1 27875U 03040A   26143.94864865  .00000119  00000+0  00000+0 0  9991
2 27875  10.4521  48.1798 0001818   3.4668 195.5313  1.00274024 32750
GALAXY 13 (HORIZONS-1)  
1 27954U 03044A   26148.26331493  .00000141  00000+0  00000+0 0  9994
2 27954   1.3684  84.0926 0002112 342.2805 124.2545  1.00274327 46379
YAMAL 202               
1 28089U 03053A   26147.61241872 -.00000075  00000+0  00000+0 0  9990
2 28089   6.2936  71.1818 0003234 337.0494 220.9580  1.00271947 82493
UFO 11 (USA 174)        
1 28117U 03057A   26147.77882219 -.00000102  00000+0  00000+0 0  9990
2 28117   8.9383  33.9302 0002369  28.4336 178.8372  1.00273272 82244
USA 176 (DSP 22)        
1 28158U 04004A   26148.13566481 -.00000300  00000+0  00000+0 0  9999
2 28158  12.0364  26.2230 0001571 316.0431 255.1583  1.00413083 32733
ABS-4 (MOBISAT-1)       
1 28184U 04007A   26147.87706728  .00000044  00000+0  00000+0 0  9995
2 28184   5.9914  72.2498 0005311 354.6005 195.3604  1.00274848 52131
INTELSAT 10-02          
1 28358U 04022A   26148.06989263 -.00000006  00000+0  00000+0 0  9993
2 28358   0.0329  50.6383 0001298 112.4481 106.6824  1.00254466 80359
ANIK F2                 
1 28378U 04027A   26148.23190214 -.00000042  00000+0  00000+0 0  9999
2 28378   3.2372  79.7038 0004526 353.5821 144.8431  1.00271820 41062
AMC-15                  
1 28446U 04041A   26148.20084102 -.00000080  00000+0  00000+0 0  9998
2 28446   0.0188 320.5164 0002533 117.5299 134.9524  1.00272702 79107
NSS-10                  
1 28526U 05003A   26148.07166432 -.00000246  00000+0  00000+0 0  9992
2 28526   6.4014  70.6972 0003159 354.0889 169.1749  1.00271128 52956
INMARSAT 4-F1           
1 28628U 05009A   26148.04305984  .00000038  00000+0  00000+0 0  9993
2 28628   5.1426  42.7293 0002982  23.7592  12.7042  1.00272795 77476
DIRECTV 8               
1 28659U 05019A   26147.98425704  .00000009  00000+0  00000+0 0  9991
2 28659   0.0159  30.1099 0003292  44.0669  46.6449  1.00272858 76878
GALAXY 28 (G-28)        
1 28702U 05022A   26148.07374433 -.00000193  00000+0  00000+0 0  9992
2 28702   3.2492  79.1780 0003179 348.9990 176.8833  1.00269700 51776
THAICOM 4               
1 28786U 05028A   26148.24537486 -.00000354  00000+0  00000+0 0  9997
2 28786   0.1955  86.2457 0002107 336.1219  31.2642  1.00272562 52055
ANIK F1R                
1 28868U 05036A   26148.20049435 -.00000067  00000+0  00000+0 0  9996
2 28868   4.2635  76.8243 0004353 358.0404 135.7480  1.00271639 46257
SYRACUSE 3A             
1 28885U 05041B   26148.01697304  .00000136  00000+0  00000+0 0  9990
2 28885   4.5924  76.0794 0003175 344.3968 237.6347  1.00281271 75548
INMARSAT 4-F2           
1 28899U 05044A   26147.96493029 -.00000255  00000+0  00000+0 0  9992
2 28899   5.0704  43.7370 0003281  21.5977 311.0474  1.00272044 75319
METEOSAT-9 (MSG-2)      
1 28912U 05049B   26147.87420727  .00000127  00000+0  00000+0 0  9995
2 28912   9.3178  54.3681 0001500 335.7549 215.7061  1.00276047  6792
EUTELSAT 174A           
1 28924U 05052A   26148.18480225  .00000017  00000+0  00000+0 0  9994
2 28924   4.1709  76.7699 0006518 346.4199  63.0626  1.00273821 52136
